{"type": "FeatureCollection", "features": [ {"type": "Feature", "properties": {"norad_id": 34750, "name": "COSMOS 2251 DEB", "group": "cosmos-2251-debris", "lat": 35.63385567330511, "lon": -17.063388061440595, "alt_km": 660.2578571726172, "timestamp": "2025-12-26T22:28:06.180578+00:00", "meta": {"OBJECT_NAME": "COSMOS 2251 DEB", "OBJECT_ID": "1993-036ZU", "EPOCH": "2025-12-26T18:35:12.841152", "MEAN_MOTION": 14.61466294, "ECCENTRICITY": 0.0038189, "INCLINATION": 74.1071, "RA_OF_ASC_NODE": 175.029, "ARG_OF_PERICENTER": 123.2051, "MEAN_ANOMALY": 248.7274, "EPHEMERIS_TYPE": 0, "CLASSIFICATION_TYPE": "U", "NORAD_CAT_ID": 34750, "ELEMENT_SET_NO": 999, "REV_AT_EPOCH": 88436, "BSTAR": 0.0012928, "MEAN_MOTION_DOT": 6.449e-05, "MEAN_MOTION_DDOT": 0}, "tle": {"line1": "1 34750U 93036ZU  25360.77445418  .00006449  00000+0  12928-2 0  9992", "line2": "2 34750  74.1071 175.0290 0038189 123.2051 248.7274 14.61466294884364"}}, "geometry": {"type": "Point", "coordinates": [-17.063388061440595, 35.63385567330511]}}, {"type": "Feature", "properties": {"norad_id": 34752, "name": "COSMOS 2251 DEB", "group": "cosmos-2251-debris", "lat": 71.48099712720906, "lon": 92.84871752360704, "alt_km": 525.8799944267566, "timestamp": "2025-12-26T22:28:06.180588+00:00", "meta": {"OBJECT_NAME": "COSMOS 2251 DEB", "OBJECT_ID": "1993-036ZW", "EPOCH": "2025-12-26T15:37:40.115136", "MEAN_MOTION": 15.00255711, "ECCENTRICITY": 0.004755, "INCLINATION": 74.0135, "RA_OF_ASC_NODE": 332.2851, "ARG_OF_PERICENTER": 96.2626, "MEAN_ANOMALY": 264.398, "EPHEMERIS_TYPE": 0, "CLASSIFICATION_TYPE": "U", "NORAD_CAT_ID": 34752, "ELEMENT_SET_NO": 999, "REV_AT_EPOCH": 90058, "BSTAR": 0.0010922, "MEAN_MOTION_DOT": 0.00013994, "MEAN_MOTION_DDOT": 0}, "tle": {"line1": "1 34752U 93036ZW  25360.65115874  .00013994  00000+0  10922-2 0  9996", "line2": "2 34752  74.0135 332.2851 0047550  96.2626 264.3980 15.00255711900580"}}, "geometry": {"type": "Point", "coordinates": [92.84871752360704, 71.48099712720906]}}, {"type": "Feature", "properties": {"norad_id": 34754, "name": "COSMOS 2251 DEB", "group": "cosmos-2251-debris", "lat": -74.01870725774468, "lon": 111.67262550115312, "alt_km": 748.5339972343081, "timestamp": "2025-12-26T22:28:06.180599+00:00", "meta": {"OBJECT_NAME": "COSMOS 2251 DEB", "OBJECT_ID": "1993-036ZY", "EPOCH": "2025-12-26T08:08:28.956192", "MEAN_MOTION": 14.40499717, "ECCENTRICITY": 0.0030043, "INCLINATION": 74.0288, "RA_OF_ASC_NODE": 202.4464, "ARG_OF_PERICENTER": 316.025, "MEAN_ANOMALY": 99.8491, "EPHEMERIS_TYPE": 0, "CLASSIFICATION_TYPE": "U", "NORAD_CAT_ID": 34754, "ELEMENT_SET_NO": 999, "REV_AT_EPOCH": 88329, "BSTAR": 0.00020066, "MEAN_MOTION_DOT": 6.15e-06, "MEAN_MOTION_DDOT": 0}, "tle": {"line1": "1 34754U 93036ZY  25360.33922403  .00000615  00000+0  20066-3 0  9994", "line2": "2 34754  74.0288 202.4464 0030043 316.0250  99.8491 14.40499717883299"}}, "geometry": {"type": "Point", "coordinates": [111.67262550115312, -74.01870725774468]}}, {"type": "Feature", "properties": {"norad_id": 34755, "name": "COSMOS 2251 DEB", "group": "cosmos-2251-debris", "lat": 66.64541671609012, "lon": 45.31400948858385, "alt_km": 1366.728999100128, "timestamp": "2025-12-26T22:28:06.180609+00:00", "meta": {"OBJECT_NAME": "COSMOS 2251 DEB", "OBJECT_ID": "1993-036ZZ", "EPOCH": "2025-12-26T12:11:51.713088", "MEAN_MOTION": 13.50581015, "ECCENTRICITY": 0.0407843, "INCLINATION": 73.9253, "RA_OF_ASC_NODE": 267.8945, "ARG_OF_PERICENTER": 285.2929, "MEAN_ANOMALY": 262.1182, "EPHEMERIS_TYPE": 0, "CLASSIFICATION_TYPE": "U", "NORAD_CAT_ID": 34755, "ELEMENT_SET_NO": 999, "REV_AT_EPOCH": 82709, "BSTAR": 0.00068246, "MEAN_MOTION_DOT": 7.11e-06, "MEAN_MOTION_DDOT": 0}, "tle": {"line1": "1 34755U 93036ZZ  25360.50823742  .00000711  00000+0  68246-3 0  9999", "line2": "2 34755  73.9253 267.8945 0407843 285.2929 262.1182 13.50581015827096"}}, "geometry": {"type": "Point", "coordinates": [45.31400948858385, 66.64541671609012]}}, {"type": "Feature", "properties": {"norad_id": 34756, "name": "COSMOS 2251 DEB", "group": "cosmos-2251-debris", "lat": 33.682625953185934, "lon": -109.99773411385112, "alt_km": 1257.4796019971536, "timestamp": "2025-12-26T22:28:06.180619+00:00", "meta": {"OBJECT_NAME": "COSMOS 2251 DEB", "OBJECT_ID": "1993-036AAA", "EPOCH": "2025-12-24T15:18:41.454720", "MEAN_MOTION": 13.67272702, "ECCENTRICITY": 0.0345926, "INCLINATION": 74.0032, "RA_OF_ASC_NODE": 84.8024, "ARG_OF_PERICENTER": 318.0621, "MEAN_ANOMALY": 39.4462, "EPHEMERIS_TYPE": 0, "CLASSIFICATION_TYPE": "U", "NORAD_CAT_ID": 34756, "ELEMENT_SET_NO": 999, "REV_AT_EPOCH": 83584, "BSTAR": 0.0010747811, "MEAN_MOTION_DOT": 1.342e-05, "MEAN_MOTION_DDOT": 0}, "tle": {"line1": "1 34756U 93036AAA 25358.63797980  .00001342  00000+0  10748-2 0  9999", "line2": "2 34756  74.0032  84.8024 0345926 318.0621  39.4462 13.67272702835842"}}, "geometry": {"type": "Point", "coordinates": [-109.99773411385112, 33.682625953185934]}}, {"type": "Feature", "properties": {"norad_id": 34758, "name": "COSMOS 2251 DEB", "group": "cosmos-2251-debris", "lat": 25.100886098225985, "lon": 88.98004725352868, "alt_km": 1159.9072414658085, "timestamp": "2025-12-26T22:28:06.180630+00:00", "meta": {"OBJECT_NAME": "COSMOS 2251 DEB", "OBJECT_ID": "1993-036AAC", "EPOCH": "2025-12-25T01:33:06.423552", "MEAN_MOTION": 13.58115883, "ECCENTRICITY": 0.03824027, "INCLINATION": 74.107, "RA_OF_ASC_NODE": 279.661, "ARG_OF_PERICENTER": 40.5031, "MEAN_ANOMALY": 322.3879, "EPHEMERIS_TYPE": 0, "CLASSIFICATION_TYPE": "U", "NORAD_CAT_ID": 34758, "ELEMENT_SET_NO": 999, "REV_AT_EPOCH": 83077, "BSTAR": 0.0017795069, "MEAN_MOTION_DOT": 2.058e-05, "MEAN_MOTION_DDOT": 0}, "tle": {"line1": "1 34758U 93036AAC 25359.06465768  .00002058  00000+0  17795-2 0  9999", "line2": "2 34758  74.1070 279.6610 0382402  40.5031 322.3879 13.58115883830773"}}, "geometry": {"type": "Point", "coordinates": [88.98004725352868, 25.100886098225985]}}, {"type": "Feature", "properties": {"norad_id": 34760, "name": "COSMOS 2251 DEB", "group": "cosmos-2251-debris", "lat": -56.81179406394266, "lon": -108.8782388823832, "alt_km": 770.4979675523937, "timestamp": "2025-12-26T22:28:06.180640+00:00", "meta": {"OBJECT_NAME": "COSMOS 2251 DEB", "OBJECT_ID": "1993-036AAE", "EPOCH": "2025-12-26T11:28:08.253120", "MEAN_MOTION": 14.1960414, "ECCENTRICITY": 0.009732, "INCLINATION": 74.0632, "RA_OF_ASC_NODE": 277.842, "ARG_OF_PERICENTER": 326.9633, "MEAN_ANOMALY": 151.7947, "EPHEMERIS_TYPE": 0, "CLASSIFICATION_TYPE": "U", "NORAD_CAT_ID": 34760, "ELEMENT_SET_NO": 999, "REV_AT_EPOCH": 86883, "BSTAR": 0.00062411, "MEAN_MOTION_DOT": 1.356e-05, "MEAN_MOTION_DDOT": 0}, "tle": {"line1": "1 34760U 93036AAE 25360.47787330  .00001356  00000+0  62411-3 0  9997", "line2": "2 34760  74.0632 277.8420 0097320 326.9633 151.7947 14.19604140868834"}}, "geometry": {"type": "Point", "coordinates": [-108.8782388823832, -56.81179406394266]}}, {"type": "Feature", "properties": {"norad_id": 34761, "name": "COSMOS 2251 DEB", "group": "cosmos-2251-debris", "lat": 73.09369918127312, "lon": 47.06298207041996, "alt_km": 751.6050221492033, "timestamp": "2025-12-26T22:28:06.180650+00:00", "meta": {"OBJECT_NAME": "COSMOS 2251 DEB", "OBJECT_ID": "1993-036AAF", "EPOCH": "2025-12-24T04:58:02.700480", "MEAN_MOTION": 14.38089541, "ECCENTRICITY": 0.00370278, "INCLINATION": 74.0286, "RA_OF_ASC_NODE": 341.6577, "ARG_OF_PERICENTER": 12.6034, "MEAN_ANOMALY": 347.6036, "EPHEMERIS_TYPE": 0, "CLASSIFICATION_TYPE": "U", "NORAD_CAT_ID": 34761, "ELEMENT_SET_NO": 999, "REV_AT_EPOCH": 87814, "BSTAR": 0.00063419722, "MEAN_MOTION_DOT": 1.911e-05, "MEAN_MOTION_DDOT": 0}, "tle": {"line1": "1 34761U 93036AAF 25358.20697570  .00001911  00000+0  63420-3 0  9990", "line2": "2 34761  74.0286 341.6577 0037027  12.6034 347.6036 14.38089541878148"}}, "geometry": {"type": "Point", "coordinates": [47.06298207041996, 73.09369918127312]}}, {"type": "Feature", "properties": {"norad_id": 34784, "name": "COSMOS 2251 DEB", "group": "cosmos-2251-debris", "lat": 33.7868480379824, "lon": -51.75469901947167, "alt_km": 674.189270332321, "timestamp": "2025-12-26T22:28:06.180661+00:00", "meta": {"OBJECT_NAME": "COSMOS 2251 DEB", "OBJECT_ID": "1993-036AAM", "EPOCH": "2025-12-26T05:52:17.900832", "MEAN_MOTION": 14.60839983, "ECCENTRICITY": 0.0049103, "INCLINATION": 74.0077, "RA_OF_ASC_NODE": 298.5051, "ARG_OF_PERICENTER": 103.7988, "MEAN_ANOMALY": 256.8649, "EPHEMERIS_TYPE": 0, "CLASSIFICATION_TYPE": "U", "NORAD_CAT_ID": 34784, "ELEMENT_SET_NO": 999, "REV_AT_EPOCH": 88732, "BSTAR": 0.00052479, "MEAN_MOTION_DOT": 2.579e-05, "MEAN_MOTION_DDOT": 0}, "tle": {"line1": "1 34784U 93036AAM 25360.24465163  .00002579  00000+0  52479-3 0  9996", "line2": "2 34784  74.0077 298.5051 0049103 103.7988 256.8649 14.60839983887325"}}, "geometry": {"type": "Point", "coordinates": [-51.75469901947167, 33.7868480379824]}}, {"type": "Feature", "properties": {"norad_id": 34790, "name": "COSMOS 2251 DEB", "group": "cosmos-2251-debris", "lat": 60.02868367854829, "lon": 8.421196296320597, "alt_km": 871.6585235352522, "timestamp": "2025-12-26T22:28:06.180671+00:00", "meta": {"OBJECT_NAME": "COSMOS 2251 DEB", "OBJECT_ID": "1993-036AAT", "EPOCH": "2025-12-25T15:51:16.162272", "MEAN_MOTION": 14.24671167, "ECCENTRICITY": 0.0100473, "INCLINATION": 74.0524, "RA_OF_ASC_NODE": 220.442, "ARG_OF_PERICENTER": 279.3563, "MEAN_ANOMALY": 137.0748, "EPHEMERIS_TYPE": 0, "CLASSIFICATION_TYPE": "U", "NORAD_CAT_ID": 34790, "ELEMENT_SET_NO": 999, "REV_AT_EPOCH": 86757, "BSTAR": 0.00054898, "MEAN_MOTION_DOT": 1.32e-05, "MEAN_MOTION_DDOT": 0}, "tle": {"line1": "1 34790U 93036AAT 25359.66060373  .00001320  00000+0  54898-3 0  9991", "line2": "2 34790  74.0524 220.4420 0100473 279.3563 137.0748 14.24671167867573"}}, "geometry": {"type": "Point", "coordinates": [8.421196296320597, 60.02868367854829]}}]}